H1 CPF  1  DLR 2022 02 19 10  5502 technosat            
H2  1704205 6203    42829 2022 02 19 00 00 00 2022 02 26 00 00 00    60 1 1  0 0 0
H9
10 0 59630  36000.000000  0       1301443.331        321691.404      -6855093.254
10 0 59630  36060.000000  0       1690103.293         95945.797      -6776113.908
10 0 59630  36120.000000  0       2069723.654       -133561.073      -6668670.933
10 0 59630  36180.000000  0       2438688.885       -365785.735      -6533202.708
10 0 59630  36240.000000  0       2795435.148       -599658.498      -6370264.253
10 0 59630  36300.000000  0       3138456.867       -834088.219      -6180525.183
10 0 59630  36360.000000  0       3466313.004      -1067967.187      -5964767.322
10 0 59630  36420.000000  0       3777633.166      -1300176.174      -5723881.986
10 0 59630  36480.000000  0       4071123.532      -1529589.718      -5458866.763
10 0 59630  36540.000000  0       4345572.435      -1755081.516      -5170821.775
10 0 59630  36600.000000  0       4599855.593      -1975529.879      -4860945.493
10 0 59630  36660.000000  0       4832940.984      -2189823.259      -4530530.130
10 0 59630  36720.000000  0       5043893.346      -2396865.819      -4180956.624
10 0 59630  36780.000000  0       5231878.297      -2595583.004      -3813689.178
10 0 59630  36840.000000  0       5396166.028      -2784927.119      -3430269.398
10 0 59630  36900.000000  0       5536134.548      -2963882.842      -3032309.998
10 0 59630  36960.000000  0       5651272.428      -3131472.668      -2621488.123
10 0 59630  37020.000000  0       5741180.997      -3286762.227      -2199538.310
10 0 59630  37080.000000  0       5805576.024      -3428865.435      -1768245.209
10 0 59630  37140.000000  0       5844288.926      -3556949.517      -1329435.984
10 0 59630  37200.000000  0       5857267.368      -3670239.823       -884972.405
10 0 59630  37260.000000  0       5844575.265      -3768024.344       -436742.750
10 0 59630  37320.000000  0       5806392.253      -3849657.957         13346.427
10 0 59630  37380.000000  0       5743012.585      -3914566.414        463378.704
10 0 59630  37440.000000  0       5654843.428      -3962250.012        911436.265
10 0 59630  37500.000000  0       5542402.609      -3992286.875       1355608.485
10 0 59630  37560.000000  0       5406315.728      -4004335.759       1794000.495
10 0 59630  37620.000000  0       5247312.730      -3998138.445       2224741.574
10 0 59630  37680.000000  0       5066224.016      -3973521.783       2645993.412
10 0 59630  37740.000000  0       4863976.068      -3930399.302       3055958.279
10 0 59630  37800.000000  0       4641586.620      -3868772.317       3452886.969
10 0 59630  37860.000000  0       4400159.429      -3788730.633       3835086.471
10 0 59630  37920.000000  0       4140878.661      -3690452.861       4200927.438
10 0 59630  37980.000000  0       3865002.800      -3574206.228       4548851.355
10 0 59630  38040.000000  0       3573858.227      -3440345.877       4877377.265
10 0 59630  38100.000000  0       3268832.606      -3289313.739       5185108.051
10 0 59630  38160.000000  0       2951368.095      -3121637.007       5470736.403
10 0 59630  38220.000000  0       2622954.270      -2937926.159       5733050.366
10 0 59630  38280.000000  0       2285120.871      -2738872.584       5970938.380
10 0 59630  38340.000000  0       1939430.467      -2525245.829       6183393.840
10 0 59630  38400.000000  0       1587471.051      -2297890.468       6369519.184
10 0 59630  38460.000000  0       1230848.598      -2057722.621       6528529.543
10 0 59630  38520.000000  0        871179.578      -1805726.088       6659755.861
10 0 59630  38580.000000  0        510083.540      -1542948.188       6762647.503
10 0 59630  38640.000000  0        149175.756      -1270495.291       6836774.399
10 0 59630  38700.000000  0       -209940.072       -989528.016       6881828.670
10 0 59630  38760.000000  0       -565678.935       -701256.213       6897625.702
10 0 59630  38820.000000  0       -916481.528       -406933.713       6884104.834
10 0 59630  38880.000000  0      -1260821.124       -107852.794       6841329.491
10 0 59630  38940.000000  0      -1597210.212        194661.538       6769486.807
10 0 59630  39000.000000  0      -1924206.915        499257.453       6668886.782
10 0 59630  39060.000000  0      -2240421.202        804562.362       6539960.938
10 0 59630  39120.000000  0      -2544520.815       1109189.116       6383260.472
10 0 59630  39180.000000  0      -2835236.901       1411742.317       6199453.952
10 0 59630  39240.000000  0      -3111369.343       1710824.724       5989324.556
10 0 59630  39300.000000  0      -3371791.811       2005043.732       5753766.852
10 0 59630  39360.000000  0      -3615456.456       2293017.913       5493783.078
10 0 59630  39420.000000  0      -3841398.221       2573383.576       5210478.933
10 0 59630  39480.000000  0      -4048738.740       2844801.270       4905058.923
10 0 59630  39540.000000  0      -4236689.866       3105962.226       4578821.322
10 0 59630  39600.000000  0      -4404556.792       3355594.730       4233152.669
10 0 59630  39660.000000  0      -4551740.671       3592470.341       3869521.890
10 0 59630  39720.000000  0      -4677740.830       3815410.016       3489474.043
10 0 59630  39780.000000  0      -4782156.445       4023289.997       3094623.688
10 0 59630  39840.000000  0      -4864687.778       4215047.534       2686648.026
10 0 59630  39900.000000  0      -4925136.951       4389686.383       2267279.663
10 0 59630  39960.000000  0      -4963408.174       4546281.981       1838299.092
10 0 59630  40020.000000  0      -4979507.469       4683986.261       1401526.948
10 0 59630  40080.000000  0      -4973541.924       4802032.087        958816.109
10 0 59630  40140.000000  0      -4945718.472       4899737.326        512043.695
10 0 59630  40200.000000  0      -4896342.210       4976508.587         63102.944
10 0 59630  40260.000000  0      -4825814.265       5031844.532       -386105.011
10 0 59630  40320.000000  0      -4734629.187       5065338.773       -833679.451
10 0 59630  40380.000000  0      -4623371.727       5076682.235      -1277728.412
10 0 59630  40440.000000  0      -4492713.212       5065664.981      -1716376.710
10 0 59630  40500.000000  0      -4343407.754       5032177.704      -2147773.938
10 0 59630  40560.000000  0      -4176287.972       4976212.636      -2570102.448
10 0 59630  40620.000000  0      -3992260.328       4897863.960      -2981585.025
10 0 59630  40680.000000  0      -3792300.160       4797327.736      -3380492.337
10 0 59630  40740.000000  0      -3577446.460       4674901.354      -3765150.077
10 0 59630  40800.000000  0      -3348796.437       4530982.537      -4133945.816
10 0 59630  40860.000000  0      -3107499.860       4366067.880      -4485335.564
10 0 59630  40920.000000  0      -2854753.254       4180750.945      -4817849.910
10 0 59630  40980.000000  0      -2591794.012       3975720.030      -5130099.858
10 0 59630  41040.000000  0      -2319894.373       3751755.484      -5420782.372
10 0 59630  41100.000000  0      -2040355.293       3509726.589      -5688685.512
10 0 59630  41160.000000  0      -1754500.264       3250588.050      -5932693.176
10 0 59630  41220.000000  0      -1463669.113       2975376.110      -6151789.407
10 0 59630  41280.000000  0      -1169211.805       2685204.308      -6345062.270
10 0 59630  41340.000000  0       -872482.307       2381258.954      -6511707.251
10 0 59630  41400.000000  0       -574832.530       2064794.360      -6651030.298
10 0 59630  41460.000000  0       -277606.326       1737127.710      -6762450.458
10 0 59630  41520.000000  0         17866.349       1399633.667      -6845502.028
10 0 59630  41580.000000  0        310275.168       1053738.807      -6899836.376
10 0 59630  41640.000000  0        598335.107        700915.790      -6925223.352
10 0 59630  41700.000000  0        880791.975        342677.263      -6921552.242
10 0 59630  41760.000000  0       1156427.723        -19430.464      -6888832.210
10 0 59630  41820.000000  0       1424065.549       -383833.877      -6827192.302
10 0 59630  41880.000000  0       1682574.765       -748938.827      -6736881.060
10 0 59630  41940.000000  0       1930875.459      -1113137.274      -6618265.771
10 0 59630  42000.000000  0       2167942.998      -1474814.182      -6471831.247
10 0 59630  42060.000000  0       2392812.232      -1832354.458      -6298178.103
10 0 59630  42120.000000  0       2604581.402      -2184149.958      -6098020.709
10 0 59630  42180.000000  0       2802415.835      -2528606.637      -5872184.768
10 0 59630  42240.000000  0       2985551.396      -2864151.811      -5621604.356
10 0 59630  42300.000000  0       3153297.611      -3189241.407      -5347318.414
10 0 59630  42360.000000  0       3305040.399      -3502367.123      -5050466.742
10 0 59630  42420.000000  0       3440244.424      -3802063.450      -4732285.604
10 0 59630  42480.000000  0       3558455.106      -4086914.602      -4394102.977
10 0 59630  42540.000000  0       3659300.315      -4355561.366      -4037333.408
10 0 59630  42600.000000  0       3742491.703      -4606707.798      -3663472.419
10 0 59630  42660.000000  0       3807825.669      -4839127.718      -3274090.519
10 0 59630  42720.000000  0       3855183.931      -5051671.038      -2870826.799
10 0 59630  42780.000000  0       3884533.625      -5243269.791      -2455382.094
10 0 59630  42840.000000  0       3895926.947      -5412943.741      -2029511.785
10 0 59630  42900.000000  0       3889500.431      -5559805.605      -1595018.389
10 0 59630  42960.000000  0       3865473.842      -5683065.992      -1153743.854
10 0 59630  43020.000000  0       3824148.588      -5782037.856       -707561.519
10 0 59630  43080.000000  0       3765905.695      -5856140.434       -258367.925
10 0 59630  43140.000000  0       3691203.363      -5904902.687        191925.495
99
